      2.10          N: GNSS NAV DATA                        RINEX VERSION / TYPE
fic2rin                                 08/30/2024 00:59:02 PGM / RUN BY / DATE
                                                            END OF HEADER
18 24  8 29 16  0  0.0 -.649873167276D-03 -.272848410532D-11  .000000000000D+00
     .194000000000D+03  .864062500000D+02  .426089176896D-08 -.137259262359D+01
     .425428152084D-05  .457691191696D-02  .366754829884D-05  .515360135841D+04
     .403200000000D+06  .149011611938D-07  .409975714117D+00 -.689178705215D-07
     .974682665731D+00  .314593750000D+03 -.301231225542D+01 -.810033741157D-08
     .359300680601D-09  .100000000000D+01  .232900000000D+04  .000000000000D+00
     .240000000000D+01  .000000000000D+00 -.838190317154D-08  .962000000000D+03
     .396000000000D+06  .400000000000D+01
14 24  8 29 16  0  0.0  .483570620418D-03  .864019966684D-11  .000000000000D+00
     .143000000000D+03  .653125000000D+01  .491163316066D-08 -.307616681410D+01
     .385567545891D-06  .484395923559D-02  .645592808723D-05  .515369244194D+04
     .403200000000D+06 -.558793544769D-07 -.167986056201D+01 -.558793544769D-08
     .944757808909D+00  .246656250000D+03 -.285769638950D+01 -.810855203945D-08
    -.278225874939D-09  .100000000000D+01  .232900000000D+04  .000000000000D+00
     .240000000000D+01  .000000000000D+00 -.791624188423D-08  .655000000000D+03
     .396000000000D+06  .400000000000D+01
15 24  8 29 15 59 44.0  .198177061975D-03  .432009983342D-11  .000000000000D+00
     .100000000000D+01 -.962500000000D+02  .510949854541D-08 -.398103664307D+00
    -.488571822643D-05  .160751411458D-01  .886246562004D-05  .515370105743D+04
     .403184000000D+06 -.167638063431D-06  .233082980942D+01  .106170773506D-06
     .936384258929D+00  .194906250000D+03  .134633465140D+01 -.854857036798D-08
     .167864135072D-10  .100000000000D+01  .232900000000D+04  .000000000000D+00
     .240000000000D+01  .000000000000D+00 -.102445483208D-07  .100000000000D+01
     .396450000000D+06  .400000000000D+01
16 24  8 29 15 59 44.0 -.195330008864D-03  .103455022327D-10  .000000000000D+00
     .210000000000D+02  .418750000000D+01  .467840916023D-08  .154124163652D+01
     .154599547386D-06  .138897302095D-01  .692903995514D-05  .515360578346D+04
     .403184000000D+06 -.258907675743D-06 -.161614813753D+01 -.167638063431D-07
     .960844955803D+00  .251687500000D+03  .842553977767D+00 -.813069581897D-08
    -.457519057505D-09  .100000000000D+01  .232900000000D+04  .000000000000D+00
     .240000000000D+01  .000000000000D+00 -.102445483208D-07  .210000000000D+02
     .400200000000D+06  .400000000000D+01
13 24  8 29 15 59 44.0  .673588365316D-03  .216004991671D-11  .000000000000D+00
     .590000000000D+02 -.692187500000D+02  .419767485001D-08  .288954116099D+00
    -.343099236488D-05  .855612184387D-02  .100340694189D-04  .515370114708D+04
     .403184000000D+06 -.763684511185D-07  .262843389095D+01  .968575477600D-07
     .972309764330D+00  .189718750000D+03  .952376060137D+00 -.786568478020D-08
     .739316509786D-10  .100000000000D+01  .232900000000D+04  .000000000000D+00
     .240000000000D+01  .000000000000D+00 -.116415321827D-07  .590000000000D+02
     .402660000000D+06  .400000000000D+01
7  24  8 29 17 59 28.0 -.446499325335D-04  .522959453519D-11  .000000000000D+00
     .770000000000D+02  .142812500000D+02  .484770192624D-08 -.119839943495D+01
     .821426510811D-06  .187166355317D-01  .785849988461D-05  .515361220551D+04
     .410368000000D+06  .288709998131D-06 -.274999311429D+01  .370666384697D-06
     .950638210012D+00  .221531250000D+03 -.210309107464D+01 -.807855078978D-08
     .218580533328D-09  .100000000000D+01  .232900000000D+04  .000000000000D+00
     .240000000000D+01  .000000000000D+00 -.107102096081D-07  .770000000000D+02
     .403200000000D+06  .400000000000D+01
16 24  8 29 17 59 44.0 -.195255968720D-03  .103455022327D-10  .000000000000D+00
     .220000000000D+02  .609375000000D+01  .456804742037D-08  .259147868140D+01
     .949949026108D-07  .138897269499D-01  .663101673126D-05  .515360547066D+04
     .410384000000D+06  .447034835815D-07 -.161620592279D+01 -.227242708206D-06
     .960843497274D+00  .251312500000D+03  .842540618399D+00 -.777925260852D-08
    -.395373611755D-09  .100000000000D+01  .232900000000D+04  .000000000000D+00
     .240000000000D+01  .000000000000D+00 -.102445483208D-07  .220000000000D+02
     .403200000000D+06  .400000000000D+01
15 24  8 29 17 59 44.0  .198208261281D-03  .432009983342D-11  .000000000000D+00
     .320000000000D+02 -.944375000000D+02  .520843123778D-08  .652080228365D+00
    -.477954745293D-05  .160746257752D-01  .901333987713D-05  .515370001221D+04
     .410384000000D+06 -.204890966415D-06  .233076872967D+01 -.372529029846D-08
     .936384089230D+00  .199156250000D+03  .134631934781D+01 -.853678416275D-08
    -.682171272315D-10  .100000000000D+01  .232900000000D+04  .000000000000D+00
     .240000000000D+01  .000000000000D+00 -.102445483208D-07  .320000000000D+02
     .403200000000D+06  .400000000000D+01
13 24  8 29 17 59 44.0  .673603732139D-03  .216004991671D-11  .000000000000D+00
     .600000000000D+02 -.715312500000D+02  .423839083170D-08  .133907896979D+01
    -.366009771824D-05  .855627085548D-02  .103823840618D-04  .515370179367D+04
     .410384000000D+06 -.186264514923D-06  .262837713265D+01  .596046447754D-07
     .972310343646D+00  .188312500000D+03  .952413267996D+00 -.782568311397D-08
     .105361531588D-09  .100000000000D+01  .232900000000D+04  .000000000000D+00
     .240000000000D+01  .000000000000D+00 -.116415321827D-07  .600000000000D+02
     .403200000000D+06  .400000000000D+01
2  24  8 29 18  0  0.0 -.368993729353D-03  .784439180279D-11  .000000000000D+00
     .149000000000D+03  .957500000000D+02  .422589031101D-08  .180952510637D+01
     .481307506561D-05  .160999604268D-01  .464729964733D-05  .515369498253D+04
     .410400000000D+06  .277534127235D-06  .306839426305D+00 -.204890966415D-07
     .967327049260D+00  .289812500000D+03 -.114057023939D+01 -.787318509262D-08
     .186436337250D-09  .100000000000D+01  .232900000000D+04  .000000000000D+00
     .340000000000D+01  .000000000000D+00 -.176951289177D-07  .149000000000D+03
     .403200000000D+06  .400000000000D+01
1  24  8 29 18  0  0.0  .210558529943D-03 -.886757334229D-11  .000000000000D+00
     .490000000000D+02  .734375000000D+01  .597203447349D-08  .308105787589D+01
     .379979610443D-06  .133916059276D-01  .628270208836D-05  .515360370255D+04
     .410400000000D+06  .100582838058D-06 -.168727277147D+01 -.119209289551D-06
     .953477818853D+00  .252687500000D+03  .103518289955D+01 -.780925385820D-08
    -.343585740297D-09  .100000000000D+01  .232900000000D+04  .000000000000D+00
     .240000000000D+01  .630000000000D+02 -.195577740669D-07  .490000000000D+02
     .403200000000D+06  .400000000000D+01
10 24  8 29 18  0  0.0 -.108669046313D-03 -.117097442853D-10  .000000000000D+00
     .160000000000D+02 -.837500000000D+02  .419267464173D-08 -.267213189473D+01
    -.442750751972D-05  .957054027822D-02  .269711017609D-05  .515368680382D+04
     .410400000000D+06  .931322574615D-07  .144070089454D+01 -.149011611938D-06
     .985139356928D+00  .342250000000D+03 -.237940489828D+01 -.797461788913D-08
     .428589281035D-11  .100000000000D+01  .232900000000D+04  .000000000000D+00
     .240000000000D+01  .000000000000D+00  .232830643654D-08  .160000000000D+02
     .403200000000D+06  .400000000000D+01
5  24  8 29 18  0  0.0 -.184842385352D-03 -.125055521494D-11  .000000000000D+00
     .570000000000D+02 -.652812500000D+02  .452018828399D-08  .196188352439D+01
    -.343844294548D-05  .592629599851D-02  .269524753094D-05  .515366377258D+04
     .410400000000D+06 -.149011611938D-07  .139065872707D+01 -.143423676491D-06
     .972425040812D+00  .334875000000D+03  .131755140172D+01 -.812855287257D-08
     .464305054455D-11  .100000000000D+01  .232900000000D+04  .000000000000D+00
     .240000000000D+01  .000000000000D+00 -.107102096081D-07  .570000000000D+02
     .403200000000D+06  .400000000000D+01
4  24  8 29 18  0  0.0  .433659180999D-03  .727595761418D-11  .000000000000D+00
     .770000000000D+02 -.936562500000D+02  .439232581514D-08  .131911062516D+01
    -.467710196972D-05  .296973367222D-02  .901892781258D-05  .515371643639D+04
     .410400000000D+06  .115483999252D-06  .252131624525D+01  .130385160446D-07
     .965826850176D+00  .207875000000D+03 -.299808962395D+01 -.789211445253D-08
     .314298806093D-10  .100000000000D+01  .232900000000D+04  .000000000000D+00
     .240000000000D+01  .000000000000D+00 -.465661287308D-08  .770000000000D+02
     .403200000000D+06  .400000000000D+01
3  24  8 29 18  0  0.0  .518650747836D-03  .142108547152D-10  .000000000000D+00
     .770000000000D+02 -.651875000000D+02  .423553356983D-08 -.174767627714D+01
    -.325962901115D-05  .574012484867D-02  .224821269512D-05  .515367000771D+04
     .410400000000D+06  .145286321640D-06  .144325301950D+01  .372529029846D-07
     .985493188536D+00  .348687500000D+03  .115228104198D+01 -.803176312660D-08
     .410731394325D-10  .100000000000D+01  .232900000000D+04  .000000000000D+00
     .240000000000D+01  .000000000000D+00  .139698386192D-08  .770000000000D+02
     .403200000000D+06  .400000000000D+01
